STARLINK-1171           
1 45062U 20006U   23002.55225090  .00001745  00000+0  13601-3 0  9990
2 45062  53.0555 103.6713 0001734  54.5704 305.5447 15.06399930161307
STARLINK-1133           
1 45064U 20006W   23003.56035474  .00004066  00000+0  29174-3 0  9990
2 45064  53.0534  79.1373 0001276  63.7630 296.3490 15.06396307161733
STARLINK-1139           
1 45065U 20006X   23003.49768378  .00000524  00000+0  54099-4 0  9999
2 45065  53.0543  79.4250 0001507  62.6060 297.5083 15.06401914161724
STARLINK-1145           
1 45066U 20006Y   23003.60458509  .00001547  00000+0  12283-3 0  9999
2 45066  53.0563  78.9346 0002167  36.6862 323.4275 15.06382324161737
STARLINK-1150           
1 45067U 20006Z   23003.22124102  .00002547  00000+0  18984-3 0  9992
2 45067  53.0536  80.6594 0002304  44.9970 315.1206 15.06399851161687
STARLINK-1161           
1 45068U 20006AA  23003.59256598  .00001552  00000+0  12310-3 0  9990
2 45068  53.0541  78.8576 0001539  71.5434 288.5723 15.06394708161732
STARLINK-1167           
1 45071U 20006AD  23003.25442517  .00003124  00000+0  22863-3 0  9996
2 45071  53.0549  80.4994 0001998  33.5885 326.5230 15.06386860161684
STARLINK-1168           
1 45072U 20006AE  23003.58984421  .00005883  00000+0  41355-3 0  9999
2 45072  53.0545  79.0068 0001420  59.0047 301.1081 15.06396494161733
STARLINK-1170           
1 45073U 20006AF  23003.48294610  .00002764  00000+0  20442-3 0  9992
2 45073  53.0558  79.4766 0002116  43.4309 316.6846 15.06399922161715
STARLINK-1172           
1 45074U 20006AG  23003.60090413  .00007553  00000+0  52532-3 0  9998
2 45074  53.0557  78.9540 0001656  76.8472 283.2701 15.06406670161738
STARLINK-1174           
1 45075U 20006AH  23003.56772179  .00001671  00000+0  13108-3 0  9991
2 45075  53.0541  79.1129 0001866  50.8495 309.2659 15.06387987161738
STARLINK-1180           
1 45076U 20006AJ  23003.50780332  .00000362  00000+0  43242-4 0  9995
2 45076  53.0569  79.3731 0002082  46.1798 313.9363 15.06396657161722
STARLINK-1177           
1 45078U 20006AL  23003.46083030  .00001990  00000+0  15253-3 0  9991
2 45078  53.0558  79.5879 0002096  50.9129 309.2046 15.06388347161704
STARLINK-1149           
1 45079U 20006AM  23003.50411815  .00000136  00000+0  28016-4 0  9996
2 45079  53.0554  79.3811 0001509  65.7659 294.3487 15.06393063161710
STARLINK-1153           
1 45080U 20006AN  23003.18069768  .00003064  00000+0  22463-3 0  9990
2 45080  53.0571  80.8440 0001828  45.1926 314.9212 15.06381497161677
STARLINK-1151           
1 45081U 20006AP  23003.48937239  .00009493  00000+0  65506-3 0  9998
2 45081  53.0558  79.4326 0001944  48.9169 311.1987 15.06416684161720
STARLINK-1160           
1 45082U 20006AQ  23003.47832007  .00005899  00000+0  41463-3 0  9997
2 45082  53.0543  79.4946 0001938  49.7207 310.3951 15.06396221161713
STARLINK-1190           
1 45083U 20006AR  23003.24520421  .00000924  00000+0  80959-4 0  9995
2 45083  53.0548 100.5422 0001879  52.9294 307.1867 15.06399379161403
STARLINK-1173           
1 45084U 20006AS  23003.29312274  .00001615  00000+0  12727-3 0  9991
2 45084  53.0554  60.3416 0001221  58.2391 301.8717 15.06403742161972
STARLINK-1179           
1 45085U 20006AT  23003.42212514  .00002124  00000+0  16144-3 0  9996
2 45085  53.0556  59.7604 0001485  69.4094 290.7054 15.06395248161995
STARLINK-1181           
1 45086U 20006AU  23003.30428227  .00044008  00000+0  15416-2 0  9991
2 45086  52.9809  28.9219 0002730 351.2297   8.8653 15.29069401162286
STARLINK-1185           
1 45087U 20006AV  23003.54007834  .00003602  00000+0  26061-3 0  9999
2 45087  53.0549  59.2303 0001967  37.7205 322.3921 15.06400380162010
STARLINK-1183           
1 45088U 20006AW  23003.56219436  .00002897  00000+0  21334-3 0  9998
2 45088  53.0538  59.1128 0002220  38.9874 321.1275 15.06395858162013
STARLINK-1136           
1 45089U 20006AX  23003.56958610  .00003161  00000+0  23107-3 0  9998
2 45089  53.0553  59.1832 0001656  63.9839 296.1321 15.06395263162028
STARLINK-1176           
1 45090U 20006AY  23003.14842215  .00001365  00000+0  11054-3 0  9999
2 45090  53.0551  60.9775 0001710  62.2892 297.8270 15.06393788161958
STARLINK-1137           
1 45092U 20006BA  23003.58800644  .00002033  00000+0  15538-3 0  9993
2 45092  53.0547  59.0139 0001696  60.9160 299.1999 15.06391660162012
STARLINK-1142           
1 45093U 20006BB  23003.58430981  .00002892  00000+0  21299-3 0  9991
2 45093  53.0541  59.0260 0001695  47.8735 312.2397 15.06399241162015
STARLINK-1146           
1 45094U 20006BC  23003.20002845  .00006147  00000+0  43123-3 0  9992
2 45094  53.0556  60.7438 0001694  57.0018 303.1134 15.06399072161967
STARLINK-1147           
1 45095U 20006BD  23003.20372977  .00004284  00000+0  30650-3 0  9990
2 45095  53.0565  60.7259 0002199  28.0116 332.0991 15.06381027161960
STARLINK-1152           
1 45096U 20006BE  23003.52903062  .00000361  00000+0  43119-4 0  9998
2 45096  53.0551  59.2730 0001202  97.2141 262.8984 15.06402403162003
STARLINK-1184           
1 45098U 20006BG  23003.44424997  .00000613  00000+0  60053-4 0  9992
2 45098  53.0566  59.6560 0001959  43.6794 316.4349 15.06395495161994
STARLINK-1186           
1 45099U 20006BH  23003.41107344  .00008016  00000+0  55632-3 0  9995
2 45099  53.0550  59.8057 0001313  65.2943 294.8182 15.06404621161997
STARLINK-1193           
1 45100U 20006BJ  23003.57326012  .00006893  00000+0  48115-3 0  9999
2 45100  53.0553  59.0874 0002495  33.1493 326.9652 15.06403020162013
STARLINK-1194           
1 45101U 20006BK  23003.43592863  .00005110  00000+0  36169-3 0  9991
2 45101  53.0557  59.6790 0002222  38.0550 322.0596 15.06400735161997
STARLINK-1195           
1 45102U 20006BL  23003.59168868  .00003126  00000+0  22869-3 0  9990
2 45102  53.0564  58.9935 0001528  65.3185 294.7962 15.06393309162018
STARLINK-1196           
1 45103U 20006BM  23003.42487635  .00004921  00000+0  34910-3 0  9993
2 45103  53.0554  59.7263 0001776  52.1464 307.9685 15.06392232161999
STARLINK-1138           
1 45178U 20012A   23003.74280859  .00002268  00000+0  17112-3 0  9993
2 45178  53.0514 218.3097 0001350 113.3165 246.7966 15.06396310159205
STARLINK-1143           
1 45179U 20012B   23003.61285825  .00004021  00000+0  28866-3 0  9995
2 45179  53.0526 218.8982 0001537  74.0195 286.0963 15.06398942159836
STARLINK-1192           
1 45180U 20012C   23003.57384572  .00026479  00000+0  13103-2 0  9999
2 45180  53.0479 208.9113 0003130 147.6035 212.5152 15.17644195159977
STARLINK-1200           
1 45181U 20012D   23003.73175128  .00001226  00000+0  10121-3 0  9994
2 45181  53.0525 218.3639 0001389  90.1546 269.9602 15.06389210159205
STARLINK-1201           
1 45182U 20012E   23003.55297763 -.00000038  00000+0  16336-4 0  9991
2 45182  53.0534 199.1614 0001152  80.5018 279.6101 15.06383864159953
STARLINK-1202           
1 45183U 20012F   23003.96765490  .00001227  00000+0  10125-3 0  9993
2 45183  53.0524 217.3067 0001600  69.4483 290.6677 15.06396990159234
STARLINK-1205           
1 45184U 20012G   23003.82576052 -.00000709  00000+0 -28729-4 0  9999
2 45184  53.0535 197.9527 0001273 109.6881 250.4246 15.06381936159472
STARLINK-1216           
1 45185U 20012H   23003.56219926 -.00000457  00000+0 -11779-4 0  9992
2 45185  53.0520 219.1328 0001304  81.4971 278.6166 15.06399222159778
STARLINK-1224           
1 45186U 20012J   23003.31156632  .00000840  00000+0  75334-4 0  9991
2 45186  53.0508 220.2584 0001469  95.3760 264.7396 15.06389164159735
STARLINK-1225           
1 45187U 20012K   23003.97871506  .00001151  00000+0  96196-4 0  9993
2 45187  53.0528 217.2629 0001318  85.0149 275.0991 15.06388887158998
STARLINK-1228           
1 45188U 20012L   23003.87549341  .00000267  00000+0  36789-4 0  9991
2 45188  53.0530 177.7100 0001619  58.1155 301.9992 15.06405145159446
STARLINK-1230           
1 45189U 20012M   23003.71701203  .00001454  00000+0  11648-3 0  9997
2 45189  53.0522 218.4358 0001408  99.6943 260.4205 15.06394879158915
STARLINK-1234           
1 45190U 20012N   23003.20466341  .00000162  00000+0  29785-4 0  9991
2 45190  53.0532 180.7329 0001390  94.3594 265.7554 15.06400984160239
STARLINK-1236           
1 45191U 20012P   23003.85707611  .00001647  00000+0  12942-3 0  9996
2 45191  53.0527 217.8075 0001800  64.1997 295.9178 15.06409401159229
STARLINK-1237           
1 45192U 20012Q   23004.09667215  .00002306  00000+0  17369-3 0  9990
2 45192  53.0536 216.7328 0001458  79.2341 280.8812 15.06389941158973
STARLINK-1239           
1 45193U 20012R   23004.01926404  .00001044  00000+0  89027-4 0  9990
2 45193  53.0532 217.0795 0001354  72.9749 287.1388 15.06387611158968
STARLINK-1240           
1 45194U 20012S   23003.62486171  .00000661  00000+0  63286-4 0  9992
2 45194  53.0524 218.8415 0001458  93.8597 266.2559 15.06389773158909
STARLINK-1241           
1 45195U 20012T   23003.96530180  .00032032  00000+0  14665-2 0  9992
2 45195  53.0486 204.8408 0003255 133.3327 226.7939 15.20243583159124
STARLINK-1244           
1 45196U 20012U   23003.73912915  .00002281  00000+0  17201-3 0  9991
2 45196  53.0531 218.3396 0001415  70.4797 289.6344 15.06396883158954
STARLINK-1269           
1 45197U 20012V   23003.13094958  .00000136  00000+0  28018-4 0  9990
2 45197  53.0521 221.0624 0001453  86.1069 274.0086 15.06394197159731
STARLINK-1154           
1 45198U 20012W   23003.51980491  .00002774  00000+0  20509-3 0  9995
2 45198  53.0527 199.3260 0001533  78.4933 281.6228 15.06397112160042
STARLINK-1197           
1 45199U 20012X   23003.58987342  .00002020  00000+0  15452-3 0  9990
2 45199  53.0535 199.0097 0001638  92.1748 267.9429 15.06391503160116
STARLINK-1199           
1 45201U 20012Z   23003.53086301  .00001135  00000+0  95065-4 0  9999
2 45201  53.0549 199.2703 0001164  88.3022 271.8101 15.06399328160100
